NARSSCUBE-2             
1 44415U 19022E   22317.45128858  .00012655  00000+0  34692-3 0  9993
2 44415  51.6382 115.0676 0010636 234.0233 125.9765 15.37603929183017
DUCHIFAT-3              
1 44854U 19089C   22317.28507652  .00007164  00000+0  53724-3 0  9993
2 44854  36.9651 297.3568 0008064 341.7077 144.3404 15.02297731160312
OPS-SAT                 
1 44878U 19092F   22317.44255966  .00012886  00000+0  54763-3 0  9990
2 44878  97.4786 140.4091 0011593 174.6132 185.5231 15.23120661160847
FLORIPASAT-1            
1 44885U 19093G   22317.41856681  .00003747  00000+0  45802-3 0  9997
2 44885  97.8883  36.1403 0015385  68.9680 291.3149 14.83777936156938
HUSKYSAT-1 (HO-107)     
1 45119U 19071J   22317.43618036  .00040334  00000+0  62381-3 0  9990
2 45119  51.6365  43.4983 0010567 353.5280   6.5572 15.53608699156441
BY70-2                  
1 45857U 20042B   22317.16418543  .00013617  00000+0  17178-2 0  9997
2 45857  97.9458  32.7006 0009413 359.6162   0.4716 14.82030162127465
SALSAT                  
1 46495U 20068K   22316.84558638  .00003278  00000+0  23293-3 0  9996
2 46495  97.7455 258.3494 0017581 130.2322 230.0446 15.05287184116500
NETSAT-4                
1 46504U 20068U   22316.82487820  .00004885  00000+0  35367-3 0  9999
2 46504  97.7367 256.4972 0011607 173.7592 186.3777 15.04410704116344
NETSAT-3                
1 46505U 20068V   22316.84467287  .00005425  00000+0  39282-3 0  9998
2 46505  97.7354 256.4089 0010661 184.5222 175.5909 15.04367499116359
NETSAT-1                
1 46506U 20068W   22316.80023028  .00004306  00000+0  31348-3 0  9998
2 46506  97.7365 256.2818 0008053 192.1388 167.9645 15.04298788116345
NETSAT-2                
1 46507U 20068X   22316.81129291  .00004452  00000+0  32396-3 0  9995
2 46507  97.7357 256.2833 0007218 197.1946 162.9036 15.04302934116293
BY70-3                  
1 46839U 20079N   22317.30475711  .00052280  00000+0  90385-3 0  9995
2 46839  97.1823  28.0284 0005415 144.2595 286.3974 15.50787787113235
UVSQ-SAT                
1 47438U 21006AB  22317.40199402  .00007924  00000+0  39552-3 0  9997
2 47438  97.4184  13.3702 0012819 115.1561 245.1004 15.17695027 99858
SOMP2B                  
1 47445U 21006AJ  22316.71177149  .00009028  00000+0  45643-3 0  9997
2 47445  97.4158  12.2237 0012451 121.1135 239.1321 15.17209954 99736
DIY-1 (ARDUIQUBE)       
1 47963U 21022AH  22317.14726527  .00029137  00000+0  13709-2 0  9998
2 47963  97.5164 217.1392 0014816 351.5603   8.5380 15.19416488 89470
